[{"OBJECT_NAME":"STARLINK-32032","OBJECT_ID":"2024-113U","EPOCH":"2026-03-09T22:46:02.838144","MEAN_MOTION":15.30178544,"ECCENTRICITY":8.44e-5,"INCLINATION":53.162,"RA_OF_ASC_NODE":357.6245,"ARG_OF_PERICENTER":97.1502,"MEAN_ANOMALY":262.9594,"EPHEMERIS_TYPE":0,"CLASSIFICATION_TYPE":"U","NORAD_CAT_ID":60077,"ELEMENT_SET_NO":999,"REV_AT_EPOCH":9727,"BSTAR":0.00011905939,"MEAN_MOTION_DOT":3.167e-5,"MEAN_MOTION_DDOT":0},{"OBJECT_NAME":"SCS-01 H","OBJECT_ID":"2025-100H","EPOCH":"2026-03-09T23:19:05.376864","MEAN_MOTION":15.31767757,"ECCENTRICITY":0.00071581,"INCLINATION":97.3749,"RA_OF_ASC_NODE":145.8085,"ARG_OF_PERICENTER":277.8492,"MEAN_ANOMALY":82.1937,"EPHEMERIS_TYPE":0,"CLASSIFICATION_TYPE":"U","NORAD_CAT_ID":63989,"ELEMENT_SET_NO":999,"REV_AT_EPOCH":4566,"BSTAR":0.0011436254,"MEAN_MOTION_DOT":0.00035149,"MEAN_MOTION_DDOT":0}]
